OBJECT B                
1 51825U 22019B   25218.97529429  .00018295  00000+0  42228-3 0  9995
2 51825  97.3830 296.2729 0009802 190.0160 170.0894 15.42550208190894
